NUSAT-1 (FRESCO)        
1 41557U 16033B   22073.55610250  .00012860  00000+0  41665-3 0  9994
2 41557  97.3848 171.3082 0011545   2.0693  54.6972 15.32080101322844
BEESAT-4                
1 41619U 16040W   22073.13205998  .00019835  00000+0  72015-3 0  9996
2 41619  97.2321 126.4378 0011629  96.8373 263.4191 15.28276723306157
CAS-2T & KS-1Q          
1 41847U 16066G   22072.77300791  .00001200  00000+0  18857-3 0  9994
2 41847  98.5628 137.5093 0365315 135.9048 227.1895 14.38411247280598
NAYIF-1 (EO-88)         
1 42017U 17008BX  22073.13227860  .00023698  00000+0  78386-3 0  9995
2 42017  97.2813 140.8111 0004736 214.9058 145.1873 15.31330985282471
ZHUHAI-1 02 (CAS-4B)    
1 42759U 17034B   22073.55298259  .00004373  00000+0  26966-3 0  9999
2 42759  43.0163 135.4699 0007072  46.4819  59.9984 15.11068131261999
ZHUHAI-1 01 (CAS-4A)    
1 42761U 17034D   22073.46561366  .00004370  00000+0  26884-3 0  9990
2 42761  43.0167 134.8074 0007678  46.2217  78.4892 15.11155870261988
MAX VALIER SAT          
1 42778U 17036P   22072.92148688  .00009720  00000+0  38856-3 0  9994
2 42778  97.2205 117.3529 0009745 309.2399  50.7974 15.25265519262332
RADFXSAT (FOX-1B)       
1 43017U 17073E   22073.17506300  .00004476  00000+0  34123-3 0  9995
2 43017  97.6868 331.2606 0252593 139.3608 222.6764 14.80526005233017
FOX-1D (AO-92)          
1 43137U 18004AC  22072.89901213  .00011854  00000+0  44511-3 0  9993
2 43137  97.3772 149.0316 0007644 350.6597   9.4499 15.27321118231759
DIWATA-2B               
1 43678U 18084H   22073.42241483  .00000787  00000+0  83451-4 0  9997
2 43678  97.9517 205.6821 0008882 235.6153 124.4250 14.91959045183684
ES'HAIL 2               
1 43700U 18090A   22073.28663671  .00000141  00000+0  00000+0 0  9999
2 43700   0.0144 162.9354 0002348 214.6008 283.3108  1.00271293 12310
FOX-1CLIFF (AO-95)      
1 43770U 18099N   22073.42107717  .00002679  00000+0  24430-3 0  9990
2 43770  97.6321 142.2317 0013085 230.3466 129.6602 14.95882562178802
ITASAT 1                
1 43786U 18099AE  22073.15852291  .00002541  00000+0  23061-3 0  9998
2 43786  97.6344 142.8381 0013867 223.8523 136.1599 14.96104166178806
JY1SAT (JO-97)          
1 43803U 18099AX  22072.73569141  .00003773  00000+0  33681-3 0  9997
2 43803  97.6301 142.1641 0013863 223.5196 136.4932 14.96461348178756
UWE-4                   
1 43880U 18111E   22072.73660357  .00003454  00000+0  30090-3 0  9995
2 43880  97.6741 340.7311 0010783 283.1733  76.8286 14.97510464175375
NEXUS (FO-99)           
1 43937U 19003F   22073.10535761  .00015908  00000+0  57640-3 0  9998
2 43937  97.1445 110.2717 0023289 131.8806 228.4426 15.28190124175406
PSAT2 (NO-104)          
1 44354U 19036R   22072.81267378  .00069941 -51505-5  75576-3 0  9998
2 44354  28.5248 115.4780 0269541 342.1690  16.9602 15.28454093149974
BRICSAT2 (NO-103)       
1 44355U 19036S   22073.11360037  .00308056  21164-4  13379-2 0  9990
2 44355  28.5217 359.2864 0120396 172.6556 187.5844 15.73177998151155
JAISAT-1                
1 44419U 19038F   22072.89071153  .00010185  00000+0  53757-3 0  9994
2 44419  97.6257  42.4321 0022216 101.5958 258.7769 15.15517247148575
DUCHIFAT-3              
1 44854U 19089C   22073.39168462  .00003535  00000+0  28279-3 0  9991
2 44854  36.9659 303.5748 0007120 179.4962 348.6475 15.00291855123642
CAS-6 (TO-108)          
1 44881U 19093C   22073.49219436  .00000398  00000+0  57245-4 0  9995
2 44881  97.8979 154.0548 0016230 132.5695 227.6911 14.81592844120711
RS-44 & BREEZE-KM R/B   
1 44909U 19096E   22073.12153999  .00000032  00000+0  83038-4 0  9994
2 44909  82.5186 293.6265 0217291 182.3688 177.6405 12.79712206103369
ORBITAL FACTORY 2 (OF-2)
1 45113U 19071C   22072.96249845  .00028135  00000+0  68985-3 0  9999
2 45113  51.6395 167.4326 0009262 190.4145 169.6649 15.40457487118632
HUSKYSAT-1 (HO-107)     
1 45119U 19071J   22072.86360345  .00026368  00000+0  65566-3 0  9991
2 45119  51.6400 167.5053 0008952 185.8718 174.2163 15.40070404118613
BY70-2                  
1 45857U 20042B   22073.44544236  .00007451  00000+0  10283-2 0  9995
2 45857  97.9592 151.2856 0011488  71.7877 288.4601 14.78394939 91410
SALSAT                  
1 46495U 20068K   22072.84039176  .00003315  00000+0  24396-3 0  9993
2 46495  97.7218  14.2022 0015417 238.6181 121.3537 15.03994332 79818
BY70-3                  
1 46839U 20079N   22073.50508611  .00020004  00000+0  54126-3 0  9994
2 46839  97.2082 147.1054 0005067 323.0289 167.7078 15.37717911 75636
RADFXSAT-2 (AO-109)     
1 47311U 21002C   22073.16657183  .00011517  00000+0  48725-3 0  9995
2 47311  60.6880   0.4619 0017042 199.8594 160.1832 15.23531098 63945
UVSQ-SAT                
1 47438U 21006AB  22073.43765807  .00008523  00000+0  46681-3 0  9994
2 47438  97.4506 134.4299 0011053 240.8095 119.2032 15.14408434 62896
DIY-1 (ARDUIQUBE)       
1 47963U 21022AH  22072.97226540  .00018651  00000+0  11379-2 0  9997
2 47963  97.5416 335.6331 0020292 100.1102 260.2417 15.10203175 52528
XW-3 (CAS-9)            
1 50466U 21131B   22073.50357518  .00000214  00000+0  84783-4 0  9997
2 50466  98.5867 150.7853 0005621  80.1953 279.9869 14.38449714 11260
